start=new Date('2021-10-01T00:00:00.000Z').valueOf();
sats=[{"PERIOD":"95.592","APOAPSIS":"548.051","EPOCH":"2021-09-30T12:40:51.638016","ARG_OF_PERICENTER":"99.5313","SEMIMAJOR_AXIS":"6925.349","RCS_SIZE":"LARGE","TIME_SYSTEM":"UTC","RA_OF_ASC_NODE":"24.3041","GP_ID":"185861429","CLASSIFICATION_TYPE":"U","SITE":"AFETR","TLE_LINE2":"2 47153  53.0578  24.3041 0001209  99.5313 260.5812 15.06400010 47424","OBJECT_NAME":"STARLINK-1867","MEAN_MOTION_DDOT":"0.0000000000000","OBJECT_TYPE":"PAYLOAD","ELEMENT_SET_NO":"999","PERIAPSIS":"546.376","NORAD_CAT_ID":"47153","OBJECT_ID":"2020-088AH","MEAN_MOTION":"15.06400010","COUNTRY_CODE":"US","ECCENTRICITY":"0.00012090","BSTAR":"0.00000258230000","INCLINATION":"53.0578","MEAN_MOTION_DOT":"-0.00000243","TLE_LINE1":"1 47153U 20088AH  21273.52837544 -.00000243  00000-0  25823-5 0  9996","DECAY_DATE":null,"CENTER_NAME":"EARTH","MEAN_ANOMALY":"260.5812","REF_FRAME":"TEME","EPHEMERIS_TYPE":"0","MEAN_ELEMENT_THEORY":"SGP4","REV_AT_EPOCH":"4742","LAUNCH_DATE":"2020-11-25","FILE":"3136969"},{"GP_ID":"185864660","CLASSIFICATION_TYPE":"U","RA_OF_ASC_NODE":"9.3229","TIME_SYSTEM":"UTC","RCS_SIZE":"LARGE","ARG_OF_PERICENTER":"99.4114","SEMIMAJOR_AXIS":"6925.351","APOAPSIS":"547.938","EPOCH":"2021-09-30T12:36:14.729472","PERIOD":"95.592","FILE":"3137070","LAUNCH_DATE":"2020-11-25","REV_AT_EPOCH":"4788","MEAN_ELEMENT_THEORY":"SGP4","EPHEMERIS_TYPE":"0","REF_FRAME":"TEME","MEAN_ANOMALY":"260.6993","TLE_LINE1":"1 47154U 20088AJ  21273.52517048  .00000378  00000-0  44246-4 0  9998","CENTER_NAME":"EARTH","DECAY_DATE":null,"INCLINATION":"53.0552","MEAN_MOTION_DOT":"0.00000378","BSTAR":"0.00004424600000","ECCENTRICITY":"0.00010430","COUNTRY_CODE":"US","NORAD_CAT_ID":"47154","OBJECT_ID":"2020-088AJ","MEAN_MOTION":"15.06399233","PERIAPSIS":"546.494","OBJECT_TYPE":"PAYLOAD","ELEMENT_SET_NO":"999","MEAN_MOTION_DDOT":"0.0000000000000","OBJECT_NAME":"STARLINK-1868","SITE":"AFETR","TLE_LINE2":"2 47154  53.0552   9.3229 0001043  99.4114 260.6993 15.06399233 47887"},{"RA_OF_ASC_NODE":"28.8539","TIME_SYSTEM":"UTC","RCS_SIZE":"LARGE","SEMIMAJOR_AXIS":"6925.313","ARG_OF_PERICENTER":"99.6077","APOAPSIS":"548.000","EPOCH":"2021-09-30T15:02:12.941952","PERIOD":"95.591","CLASSIFICATION_TYPE":"U","GP_ID":"185864663","CENTER_NAME":"EARTH","TLE_LINE1":"1 47155U 20088AK  21273.62653868  .00001025  00000-0  87671-4 0  9990","DECAY_DATE":null,"INCLINATION":"53.0550","MEAN_MOTION_DOT":"0.00001025","BSTAR":"0.00008767100000","ECCENTRICITY":"0.00011880","COUNTRY_CODE":"US","MEAN_MOTION":"15.06411716","OBJECT_ID":"2020-088AK","NORAD_CAT_ID":"47155","PERIAPSIS":"546.355","OBJECT_TYPE":"PAYLOAD","ELEMENT_SET_NO":"999","MEAN_MOTION_DDOT":"0.0000000000000","OBJECT_NAME":"STARLINK-1869","SITE":"AFETR","TLE_LINE2":"2 47155  53.0550  28.8539 0001188  99.6077 260.5046 15.06411716 47616","FILE":"3137070","LAUNCH_DATE":"2020-11-25","REV_AT_EPOCH":"4761","MEAN_ELEMENT_THEORY":"SGP4","EPHEMERIS_TYPE":"0","REF_FRAME":"TEME","MEAN_ANOMALY":"260.5046"},{"CLASSIFICATION_TYPE":"U","GP_ID":"185864700","TIME_SYSTEM":"UTC","RA_OF_ASC_NODE":"322.1357","PERIOD":"93.375","APOAPSIS":"441.286","EPOCH":"2021-09-30T15:31:00.917760","SEMIMAJOR_AXIS":"6817.833","ARG_OF_PERICENTER":"34.3892","RCS_SIZE":"LARGE","REV_AT_EPOCH":"4856","FILE":"3137048","LAUNCH_DATE":"2020-11-25","REF_FRAME":"TEME","MEAN_ANOMALY":"325.7263","EPHEMERIS_TYPE":"0","MEAN_ELEMENT_THEORY":"SGP4","ECCENTRICITY":"0.00023290","COUNTRY_CODE":"US","BSTAR":"0.00046128000000","INCLINATION":"53.0551","MEAN_MOTION_DOT":"0.00019724","DECAY_DATE":null,"TLE_LINE1":"1 47156U 20088AL  21273.64653840  .00019724  00000-0  46128-3 0  9999","CENTER_NAME":"EARTH","OBJECT_NAME":"STARLINK-1870","SITE":"AFETR","TLE_LINE2":"2 47156  53.0551 322.1357 0002329  34.3892 325.7263 15.42173415 48566","ELEMENT_SET_NO":"999","OBJECT_TYPE":"PAYLOAD","MEAN_MOTION_DDOT":"0.0000000000000","PERIAPSIS":"438.110","MEAN_MOTION":"15.42173415","OBJECT_ID":"2020-088AL","NORAD_CAT_ID":"47156"},{"RA_OF_ASC_NODE":"19.2909","TIME_SYSTEM":"UTC","RCS_SIZE":"LARGE","SEMIMAJOR_AXIS":"6925.375","ARG_OF_PERICENTER":"103.2841","EPOCH":"2021-09-30T12:45:32.947776","APOAPSIS":"548.162","PERIOD":"95.593","GP_ID":"185861929","CLASSIFICATION_TYPE":"U","TLE_LINE1":"1 47157U 20088AM  21273.53163134  .00000139  00000-0  28232-4 0  9997","DECAY_DATE":null,"CENTER_NAME":"EARTH","INCLINATION":"53.0568","MEAN_MOTION_DOT":"0.00000139","BSTAR":"0.00002823200000","ECCENTRICITY":"0.00013320","COUNTRY_CODE":"US","OBJECT_ID":"2020-088AM","MEAN_MOTION":"15.06391409","NORAD_CAT_ID":"47157","PERIAPSIS":"546.317","MEAN_MOTION_DDOT":"0.0000000000000","OBJECT_TYPE":"PAYLOAD","ELEMENT_SET_NO":"999","SITE":"AFETR","TLE_LINE2":"2 47157  53.0568  19.2909 0001332 103.2841 256.8296 15.06391409 47491","OBJECT_NAME":"STARLINK-1871","LAUNCH_DATE":"2020-11-25","FILE":"3136969","REV_AT_EPOCH":"4749","MEAN_ELEMENT_THEORY":"SGP4","EPHEMERIS_TYPE":"0","MEAN_ANOMALY":"256.8296","REF_FRAME":"TEME"},{"RA_OF_ASC_NODE":"9.1624","TIME_SYSTEM":"UTC","ARG_OF_PERICENTER":"107.3583","SEMIMAJOR_AXIS":"6925.358","RCS_SIZE":"LARGE","PERIOD":"95.592","EPOCH":"2021-09-30T13:18:43.136352","APOAPSIS":"548.059","CLASSIFICATION_TYPE":"U","GP_ID":"185860178","MEAN_MOTION_DOT":"0.00001181","INCLINATION":"53.0565","TLE_LINE1":"1 47158U 20088AN  21273.55466593  .00001181  00000-0  98136-4 0  9993","DECAY_DATE":null,"CENTER_NAME":"EARTH","COUNTRY_CODE":"US","ECCENTRICITY":"0.00012070","BSTAR":"0.00009813600000","PERIAPSIS":"546.387","NORAD_CAT_ID":"47158","OBJECT_ID":"2020-088AN","MEAN_MOTION":"15.06396846","OBJECT_NAME":"STARLINK-1873","SITE":"AFETR","TLE_LINE2":"2 47158  53.0565   9.1624 0001207 107.3583 252.7538 15.06396846 47630","OBJECT_TYPE":"PAYLOAD","ELEMENT_SET_NO":"999","MEAN_MOTION_DDOT":"0.0000000000000","REV_AT_EPOCH":"4763","FILE":"3136969","LAUNCH_DATE":"2020-11-25","EPHEMERIS_TYPE":"0","MEAN_ELEMENT_THEORY":"SGP4","REF_FRAME":"TEME","MEAN_ANOMALY":"252.7538"},{"MEAN_ELEMENT_THEORY":"SGP4","EPHEMERIS_TYPE":"0","REF_FRAME":"TEME","MEAN_ANOMALY":"247.0076","FILE":"3136969","LAUNCH_DATE":"2020-11-25","REV_AT_EPOCH":"4749","OBJECT_ID":"2020-088AP","MEAN_MOTION":"15.06398703","NORAD_CAT_ID":"47159","PERIAPSIS":"546.474","OBJECT_TYPE":"PAYLOAD","ELEMENT_SET_NO":"999","MEAN_MOTION_DDOT":"0.0000000000000","OBJECT_NAME":"STARLINK-1874","SITE":"AFETR","TLE_LINE2":"2 47159  53.0545  19.2110 0001073 113.1026 247.0076 15.06398703 47491","TLE_LINE1":"1 47159U 20088AP  21273.55005974  .00000989  00000-0  85304-4 0  9994","DECAY_DATE":null,"CENTER_NAME":"EARTH","INCLINATION":"53.0545","MEAN_MOTION_DOT":"0.00000989","BSTAR":"0.00008530400000","COUNTRY_CODE":"US","ECCENTRICITY":"0.00010730","GP_ID":"185860428","CLASSIFICATION_TYPE":"U","RCS_SIZE":"LARGE","ARG_OF_PERICENTER":"113.1026","SEMIMAJOR_AXIS":"6925.353","EPOCH":"2021-09-30T13:12:05.161536","APOAPSIS":"547.961","PERIOD":"95.592","RA_OF_ASC_NODE":"19.2110","TIME_SYSTEM":"UTC"},{"OBJECT_ID":"2020-088AQ","MEAN_MOTION":"15.53584450","NORAD_CAT_ID":"47160","PERIAPSIS":"402.149","OBJECT_TYPE":"PAYLOAD","ELEMENT_SET_NO":"999","MEAN_MOTION_DDOT":"0.0000000000000","OBJECT_NAME":"STARLINK-1875","SITE":"AFETR","TLE_LINE2":"2 47160  53.0549 355.1259 0006078 272.3046  87.7268 15.53584450 48089","TLE_LINE1":"1 47160U 20088AQ  21273.51693535  .00330726  00000-0  48980-2 0  9990","DECAY_DATE":null,"CENTER_NAME":"EARTH","INCLINATION":"53.0549","MEAN_MOTION_DOT":"0.00330726","BSTAR":"0.00489800000000","COUNTRY_CODE":"US","ECCENTRICITY":"0.00060780","MEAN_ELEMENT_THEORY":"SGP4","EPHEMERIS_TYPE":"0","REF_FRAME":"TEME","MEAN_ANOMALY":"87.7268","FILE":"3137148","LAUNCH_DATE":"2020-11-25","REV_AT_EPOCH":"4808","RCS_SIZE":"LARGE","ARG_OF_PERICENTER":"272.3046","SEMIMAJOR_AXIS":"6784.408","EPOCH":"2021-09-30T12:24:23.214240","APOAPSIS":"410.396","PERIOD":"92.689","RA_OF_ASC_NODE":"355.1259","TIME_SYSTEM":"UTC","CLASSIFICATION_TYPE":"U","GP_ID":"185867654"},{"GP_ID":"185864683","CLASSIFICATION_TYPE":"U","APOAPSIS":"548.174","EPOCH":"2021-09-30T17:17:33.626112","PERIOD":"95.592","RCS_SIZE":"LARGE","SEMIMAJOR_AXIS":"6925.348","ARG_OF_PERICENTER":"104.4421","TIME_SYSTEM":"UTC","RA_OF_ASC_NODE":"8.4296","REF_FRAME":"TEME","MEAN_ANOMALY":"255.6722","MEAN_ELEMENT_THEORY":"SGP4","EPHEMERIS_TYPE":"0","FILE":"3137047","LAUNCH_DATE":"2020-11-25","REV_AT_EPOCH":"4791","ELEMENT_SET_NO":"999","OBJECT_TYPE":"PAYLOAD","MEAN_MOTION_DDOT":"0.0000000000000","OBJECT_NAME":"STARLINK-1876","TLE_LINE2":"2 47161  53.0549   8.4296 0001388 104.4421 255.6722 15.06400114 47914","SITE":"AFETR","OBJECT_ID":"2020-088AR","MEAN_MOTION":"15.06400114","NORAD_CAT_ID":"47161","PERIAPSIS":"546.252","BSTAR":"0.00019187000000","ECCENTRICITY":"0.00013880","COUNTRY_CODE":"US","DECAY_DATE":null,"TLE_LINE1":"1 47161U 20088AR  21273.72052808  .00002578  00000-0  19187-3 0  9995","CENTER_NAME":"EARTH","INCLINATION":"53.0549","MEAN_MOTION_DOT":"0.00002578"},{"MEAN_ELEMENT_THEORY":"SGP4","EPHEMERIS_TYPE":"0","MEAN_ANOMALY":"260.8436","REF_FRAME":"TEME","LAUNCH_DATE":"2020-11-25","FILE":"3136969","REV_AT_EPOCH":"4749","NORAD_CAT_ID":"47162","OBJECT_ID":"2020-088AS","MEAN_MOTION":"15.06395974","PERIAPSIS":"546.362","MEAN_MOTION_DDOT":"0.0000000000000","OBJECT_TYPE":"PAYLOAD","ELEMENT_SET_NO":"999","TLE_LINE2":"2 47162  53.0567  19.3350 0001248  99.2694 260.8436 15.06395974 47495","SITE":"AFETR","OBJECT_NAME":"STARLINK-1877","CENTER_NAME":"EARTH","TLE_LINE1":"1 47162U 20088AS  21273.51687927  .00000172  00000-0  30473-4 0  9999","DECAY_DATE":null,"MEAN_MOTION_DOT":"0.00000172","INCLINATION":"53.0567","BSTAR":"0.00003047300000","COUNTRY_CODE":"US","ECCENTRICITY":"0.00012480","GP_ID":"185860678","CLASSIFICATION_TYPE":"U","RCS_SIZE":"LARGE","ARG_OF_PERICENTER":"99.2694","SEMIMAJOR_AXIS":"6925.361","APOAPSIS":"548.090","EPOCH":"2021-09-30T12:24:18.368928","PERIOD":"95.592","RA_OF_ASC_NODE":"19.3350","TIME_SYSTEM":"UTC"}];
